{"type":"FeatureCollection","features":[{"type":"Feature","properties":{},"geometry":{"type":"Polygon","coordinates":[[[-76.933877,17.945982],[-76.910242,17.932876],[-76.90627,17.926313],[-76.894535,17.933929],[-76.891892,17.92561],[-76.887229,17.925906],[-76.888279,17.932487],[-76.894302,17.940584],[-76.894651,17.951563],[-76.887929,17.954077],[-76.878059,17.950048],[-76.873629,17.945205],[-76.871725,17.94502],[-76.871142,17.950085],[-76.855987,17.963688],[-76.863021,17.970378],[-76.8603,17.977956],[-76.867731,17.991898],[-76.876436,18.003318],[-76.879739,18.004088],[-76.883895,18.003662],[-76.894037,18.005066],[-76.895982,18.001729],[-76.894544,17.996001],[-76.88922,17.988535],[-76.887783,17.980441],[-76.898741,17.972716],[-76.907523,17.9678],[-76.914789,17.961331],[-76.916694,17.967578],[-76.930328,17.9769],[-76.947542,17.966513],[-76.9449,17.959157],[-76.933901,17.946011],[-76.933877,17.945982]]]}}]}